[
  {
    "CCSDS_OMM_VERS": "3.0",
    "COMMENT": "GENERATED VIA SPACE-TRACK.ORG API",
    "CREATION_DATE": "2024-04-26T17:49:15",
    "ORIGINATOR": "18 SPCS",
    "OBJECT_NAME": "IRIDIUM 33 DEB",
    "OBJECT_ID": "1997-051MP",
    "CENTER_NAME": "EARTH",
    "REF_FRAME": "TEME",
    "TIME_SYSTEM": "UTC",
    "MEAN_ELEMENT_THEORY": "SGP4",
    "EPOCH": "2024-04-26T09:43:34.869216",
    "MEAN_MOTION": "15.55907947",
    "ECCENTRICITY": "0.00053970",
    "INCLINATION": "86.4253",
    "RA_OF_ASC_NODE": "359.3821",
    "ARG_OF_PERICENTER": "265.9742",
    "MEAN_ANOMALY": "94.0904",
    "EPHEMERIS_TYPE": "0",
    "CLASSIFICATION_TYPE": "U",
    "NORAD_CAT_ID": "34869",
    "ELEMENT_SET_NO": "999",
    "REV_AT_EPOCH": "78860",
    "BSTAR": "0.03659400000000",
    "MEAN_MOTION_DOT": "0.02902533",
    "MEAN_MOTION_DDOT": "0.0000000000000",
    "SEMIMAJOR_AXIS": "6777.652",
    "PERIOD": "92.550",
    "APOAPSIS": "403.175",
    "PERIAPSIS": "395.859",
    "OBJECT_TYPE": "DEBRIS",
    "RCS_SIZE": "SMALL",
    "COUNTRY_CODE": "US",
    "LAUNCH_DATE": "1997-09-14",
    "SITE": "TTMTR",
    "DECAY_DATE": "2024-04-30",
    "FILE": "4299439",
    "GP_ID": "255763073",
    "TLE_LINE0": "0 IRIDIUM 33 DEB",
    "TLE_LINE1": "1 34869U 97051MP  24117.40526469  .02902533  00000-0  36594-1 0  9995",
    "TLE_LINE2": "2 34869  86.4253 359.3821 0005397 265.9742  94.0904 15.55907947788607"
  },
  {
    "CCSDS_OMM_VERS": "3.0",
    "COMMENT": "GENERATED VIA SPACE-TRACK.ORG API",
    "CREATION_DATE": "2025-11-26T14:36:23",
    "ORIGINATOR": "18 SPCS",
    "OBJECT_NAME": "IRIDIUM 33 DEB",
    "OBJECT_ID": "1997-051MQ",
    "CENTER_NAME": "EARTH",
    "REF_FRAME": "TEME",
    "TIME_SYSTEM": "UTC",
    "MEAN_ELEMENT_THEORY": "SGP4",
    "EPOCH": "2025-11-26T10:31:55.343136",
    "MEAN_MOTION": "14.75943906",
    "ECCENTRICITY": "0.00144950",
    "INCLINATION": "86.3103",
    "RA_OF_ASC_NODE": "321.5474",
    "ARG_OF_PERICENTER": "246.7327",
    "MEAN_ANOMALY": "269.5225",
    "EPHEMERIS_TYPE": "0",
    "CLASSIFICATION_TYPE": "U",
    "NORAD_CAT_ID": "34870",
    "ELEMENT_SET_NO": "999",
    "REV_AT_EPOCH": "88670",
    "BSTAR": "0.00154690000000",
    "MEAN_MOTION_DOT": "0.00010681",
    "MEAN_MOTION_DDOT": "0.0000000000000",
    "SEMIMAJOR_AXIS": "7020.294",
    "PERIOD": "97.565",
    "APOAPSIS": "652.334",
    "PERIAPSIS": "631.983",
    "OBJECT_TYPE": "DEBRIS",
    "RCS_SIZE": "SMALL",
    "COUNTRY_CODE": "US",
    "LAUNCH_DATE": "1997-09-14",
    "SITE": "TTMTR",
    "DECAY_DATE": null,
    "FILE": "4902614",
    "GP_ID": "303623206",
    "TLE_LINE0": "0 IRIDIUM 33 DEB",
    "TLE_LINE1": "1 34870U 97051MQ  25330.43883499  .00010681  00000-0  15469-2 0  9998",
    "TLE_LINE2": "2 34870  86.3103 321.5474 0014495 246.7327 269.5225 14.75943906886703"
  },
  {
    "CCSDS_OMM_VERS": "3.0",
    "COMMENT": "GENERATED VIA SPACE-TRACK.ORG API",
    "CREATION_DATE": "2023-08-02T14:46:13",
    "ORIGINATOR": "18 SPCS",
    "OBJECT_NAME": "IRIDIUM 33 DEB",
    "OBJECT_ID": "1997-051MR",
    "CENTER_NAME": "EARTH",
    "REF_FRAME": "TEME",
    "TIME_SYSTEM": "UTC",
    "MEAN_ELEMENT_THEORY": "SGP4",
    "EPOCH": "2023-08-02T09:10:16.633344",
    "MEAN_MOTION": "15.99457280",
    "ECCENTRICITY": "0.00286400",
    "INCLINATION": "86.3055",
    "RA_OF_ASC_NODE": "344.9660",
    "ARG_OF_PERICENTER": "295.5063",
    "MEAN_ANOMALY": "64.3261",
    "EPHEMERIS_TYPE": "0",
    "CLASSIFICATION_TYPE": "U",
    "NORAD_CAT_ID": "34889",
    "ELEMENT_SET_NO": "999",
    "REV_AT_EPOCH": "76388",
    "BSTAR": "0.02017900000000",
    "MEAN_MOTION_DOT": "0.07503649",
    "MEAN_MOTION_DDOT": "0.1159300000000",
    "SEMIMAJOR_AXIS": "6654.060",
    "PERIOD": "90.031",
    "APOAPSIS": "294.983",
    "PERIAPSIS": "256.868",
    "OBJECT_TYPE": "DEBRIS",
    "RCS_SIZE": "SMALL",
    "COUNTRY_CODE": "US",
    "LAUNCH_DATE": "1997-09-14",
    "SITE": "TTMTR",
    "DECAY_DATE": "2023-08-03",
    "FILE": "3969636",
    "GP_ID": "235408002",
    "TLE_LINE0": "0 IRIDIUM 33 DEB",
    "TLE_LINE1": "1 34889U 97051MR  23214.38213696  .07503649  11593+0  20179-1 0  9996",
    "TLE_LINE2": "2 34889  86.3055 344.9660 0028640 295.5063  64.3261 15.99457280763887"
  },
  {
    "CCSDS_OMM_VERS": "3.0",
    "COMMENT": "GENERATED VIA SPACE-TRACK.ORG API",
    "CREATION_DATE": "2023-10-05T06:46:18",
    "ORIGINATOR": "18 SPCS",
    "OBJECT_NAME": "IRIDIUM 33 DEB",
    "OBJECT_ID": "1997-051MS",
    "CENTER_NAME": "EARTH",
    "REF_FRAME": "TEME",
    "TIME_SYSTEM": "UTC",
    "MEAN_ELEMENT_THEORY": "SGP4",
    "EPOCH": "2023-10-04T21:35:07.759968",
    "MEAN_MOTION": "15.83870475",
    "ECCENTRICITY": "0.00113620",
    "INCLINATION": "86.2432",
    "RA_OF_ASC_NODE": "337.6159",
    "ARG_OF_PERICENTER": "293.4935",
    "MEAN_ANOMALY": "66.5148",
    "EPHEMERIS_TYPE": "0",
    "CLASSIFICATION_TYPE": "U",
    "NORAD_CAT_ID": "34890",
    "ELEMENT_SET_NO": "999",
    "REV_AT_EPOCH": "76442",
    "BSTAR": "0.04842600000000",
    "MEAN_MOTION_DOT": "0.13820138",
    "MEAN_MOTION_DDOT": "0.0000000000000",
    "SEMIMAJOR_AXIS": "6697.644",
    "PERIOD": "90.917",
    "APOAPSIS": "327.119",
    "PERIAPSIS": "311.899",
    "OBJECT_TYPE": "DEBRIS",
    "RCS_SIZE": "SMALL",
    "COUNTRY_CODE": "US",
    "LAUNCH_DATE": "1997-09-14",
    "SITE": "TTMTR",
    "DECAY_DATE": "2023-10-11",
    "FILE": "4024950",
    "GP_ID": "238457023",
    "TLE_LINE0": "0 IRIDIUM 33 DEB",
    "TLE_LINE1": "1 34890U 97051MS  23277.89939537  .13820138  00000-0  48426-1 0  9991",
    "TLE_LINE2": "2 34890  86.2432 337.6159 0011362 293.4935  66.5148 15.83870475764424"
  },
  {
    "CCSDS_OMM_VERS": "3.0",
    "COMMENT": "GENERATED VIA SPACE-TRACK.ORG API",
    "CREATION_DATE": "2013-09-17T01:29:01",
    "ORIGINATOR": "18 SPCS",
    "OBJECT_NAME": "IRIDIUM 33 DEB",
    "OBJECT_ID": "1997-051MT",
    "CENTER_NAME": "EARTH",
    "REF_FRAME": "TEME",
    "TIME_SYSTEM": "UTC",
    "MEAN_ELEMENT_THEORY": "SGP4",
    "EPOCH": "2013-09-17T03:06:50.720543",
    "MEAN_MOTION": "15.70240229",
    "ECCENTRICITY": "0.00157960",
    "INCLINATION": "86.1110",
    "RA_OF_ASC_NODE": "45.5552",
    "ARG_OF_PERICENTER": "278.7895",
    "MEAN_ANOMALY": "81.1586",
    "EPHEMERIS_TYPE": "0",
    "CLASSIFICATION_TYPE": "U",
    "NORAD_CAT_ID": "34891",
    "ELEMENT_SET_NO": "999",
    "REV_AT_EPOCH": "24531",
    "BSTAR": "0.01298300000000",
    "MEAN_MOTION_DOT": "0.01795396",
    "MEAN_MOTION_DDOT": "0.0000000000000",
    "SEMIMAJOR_AXIS": "6736.351",
    "PERIOD": "91.705",
    "APOAPSIS": "368.856",
    "PERIAPSIS": "347.575",
    "OBJECT_TYPE": "DEBRIS",
    "RCS_SIZE": "SMALL",
    "COUNTRY_CODE": "US",
    "LAUNCH_DATE": "1997-09-14",
    "SITE": "TTMTR",
    "DECAY_DATE": "2013-09-22",
    "FILE": "1548415",
    "GP_ID": "93853595",
    "TLE_LINE0": "0 IRIDIUM 33 DEB",
    "TLE_LINE1": "1 34891U 97051MT  13260.12975371  .01795396  00000-0  12983-1 0  9998",
    "TLE_LINE2": "2 34891 086.1110 045.5552 0015796 278.7895 081.1586 15.70240229245310"
  },
  {
    "CCSDS_OMM_VERS": "3.0",
    "COMMENT": "GENERATED VIA SPACE-TRACK.ORG API",
    "CREATION_DATE": "2013-02-21T12:15:54",
    "ORIGINATOR": "18 SPCS",
    "OBJECT_NAME": "IRIDIUM 33 DEB",
    "OBJECT_ID": "1997-051MU",
    "CENTER_NAME": "EARTH",
    "REF_FRAME": "TEME",
    "TIME_SYSTEM": "UTC",
    "MEAN_ELEMENT_THEORY": "SGP4",
    "EPOCH": "2013-02-21T08:03:46.048032",
    "MEAN_MOTION": "15.86048932",
    "ECCENTRICITY": "0.00152830",
    "INCLINATION": "86.2790",
    "RA_OF_ASC_NODE": "165.0909",
    "ARG_OF_PERICENTER": "298.9054",
    "MEAN_ANOMALY": "63.4878",
    "EPHEMERIS_TYPE": "0",
    "CLASSIFICATION_TYPE": "U",
    "NORAD_CAT_ID": "34892",
    "ELEMENT_SET_NO": "999",
    "REV_AT_EPOCH": "20797",
    "BSTAR": "0.02579300000000",
    "MEAN_MOTION_DOT": "0.05193725",
    "MEAN_MOTION_DDOT": "0.0321860000000",
    "SEMIMAJOR_AXIS": "6691.514",
    "PERIOD": "90.791",
    "APOAPSIS": "323.605",
    "PERIAPSIS": "303.152",
    "OBJECT_TYPE": "DEBRIS",
    "RCS_SIZE": "SMALL",
    "COUNTRY_CODE": "US",
    "LAUNCH_DATE": "1997-09-14",
    "SITE": "TTMTR",
    "DECAY_DATE": "2013-02-22",
    "FILE": "1443211",
    "GP_ID": "92239665",
    "TLE_LINE0": "0 IRIDIUM 33 DEB",
    "TLE_LINE1": "1 34892U 97051MU  13052.33594963  .05193725  32186-1  25793-1 0  9991",
    "TLE_LINE2": "2 34892 086.2790 165.0909 0015283 298.9054 063.4878 15.86048932207973"
  },
  {
    "CCSDS_OMM_VERS": "3.0",
    "COMMENT": "GENERATED VIA SPACE-TRACK.ORG API",
    "CREATION_DATE": "2018-10-09T03:50:03",
    "ORIGINATOR": "18 SPCS",
    "OBJECT_NAME": "IRIDIUM 33 DEB",
    "OBJECT_ID": "1997-051MV",
    "CENTER_NAME": "EARTH",
    "REF_FRAME": "TEME",
    "TIME_SYSTEM": "UTC",
    "MEAN_ELEMENT_THEORY": "SGP4",
    "EPOCH": "2018-09-03T16:10:23.627712",
    "MEAN_MOTION": "16.09445307",
    "ECCENTRICITY": "0.00357610",
    "INCLINATION": "86.0560",
    "RA_OF_ASC_NODE": "307.4882",
    "ARG_OF_PERICENTER": "206.2697",
    "MEAN_ANOMALY": "283.7590",
    "EPHEMERIS_TYPE": "0",
    "CLASSIFICATION_TYPE": "U",
    "NORAD_CAT_ID": "34893",
    "ELEMENT_SET_NO": "999",
    "REV_AT_EPOCH": "50690",
    "BSTAR": "0.00240440000000",
    "MEAN_MOTION_DOT": "0.02188472",
    "MEAN_MOTION_DDOT": "0.0046144000000",
    "SEMIMAJOR_AXIS": "6626.502",
    "PERIOD": "89.471",
    "APOAPSIS": "272.064",
    "PERIAPSIS": "224.670",
    "OBJECT_TYPE": "DEBRIS",
    "RCS_SIZE": "SMALL",
    "COUNTRY_CODE": "US",
    "LAUNCH_DATE": "1997-09-14",
    "SITE": "TTMTR",
    "DECAY_DATE": "2018-09-03",
    "FILE": "2342308",
    "GP_ID": "123717566",
    "TLE_LINE0": "0 IRIDIUM 33 DEB",
    "TLE_LINE1": "1 34893U 97051MV  18246.67388458 +.02188472 +46144-2 +24044-2 0  9998",
    "TLE_LINE2": "2 34893 086.0560 307.4882 0035761 206.2697 283.7590 16.09445307506903"
  }
]